[
    {
        "Altitude(m)": 712937.2667685974,
        "Argument of Periapsis(deg)": 0.0011390121186627068,
        "Eccentricity": 0.0,
        "Inclination(deg)": 45.0,
        "Latitude(deg)": -33.10708836977473,
        "Longitude(deg)": 45.38418505742516,
        "Mean Anomaly(deg)": -129.75577833525188,
        "RAAN(deg)": 284.99892480585413,
        "Satellite Name": "Constellation 1 1268",
        "Satellite Number": 1268,
        "Semi-Major Axis(m)": 7083131.272910544,
        "Time(s)": 19
    },
    {
        "Altitude(m)": 712950.3638797456,
        "Argument of Periapsis(deg)": 0.0011989601249081123,
        "Eccentricity": 0.0,
        "Inclination(deg)": 45.0,
        "Latitude(deg)": -33.139806918942504,
        "Longitude(deg)": 45.44093520071591,
        "Mean Anomaly(deg)": -129.69507719500206,
        "RAAN(deg)": 284.9988682166886,
        "Satellite Name": "Constellation 1 1268",
        "Satellite Number": 1268,
        "Semi-Major Axis(m)": 7083131.272910544,
        "Time(s)": 20
    },
    {
        "Altitude(m)": 712963.4525279804,
        "Argument of Periapsis(deg)": 0.001258908131153518,
        "Eccentricity": 0.0,
        "Inclination(deg)": 45.0,
        "Latitude(deg)": -33.172495485894224,
        "Longitude(deg)": 45.49773035412359,
        "Mean Anomaly(deg)": -129.63437605475207,
        "RAAN(deg)": 284.998811627523,
        "Satellite Name": "Constellation 1 1268",
        "Satellite Number": 1268,
        "Semi-Major Axis(m)": 7083131.272910544,
        "Time(s)": 21
    },
    {
        "Altitude(m)": 712976.5326666674,
        "Argument of Periapsis(deg)": 0.0013188561373989236,
        "Eccentricity": 0.0,
        "Inclination(deg)": 45.0,
        "Latitude(deg)": -33.20515401216033,
        "Longitude(deg)": 45.55457039794408,
        "Mean Anomaly(deg)": -129.57367491450225,
        "RAAN(deg)": 284.99875503835744,
        "Satellite Name": "Constellation 1 1268",
        "Satellite Number": 1268,
        "Semi-Major Axis(m)": 7083131.272910544,
        "Time(s)": 22
    },
    {
        "Altitude(m)": 712989.6042491895,
        "Argument of Periapsis(deg)": 0.0013788041436443293,
        "Eccentricity": 0.0,
        "Inclination(deg)": 45.0,
        "Latitude(deg)": -33.23778243920092,
        "Longitude(deg)": 45.61145571662872,
        "Mean Anomaly(deg)": -129.5129737742523,
        "RAAN(deg)": 284.9986984491919,
        "Satellite Name": "Constellation 1 1268",
        "Satellite Number": 1268,
        "Semi-Major Axis(m)": 7083131.272910544,
        "Time(s)": 23
    },
    {
        "Altitude(m)": 713002.6672289674,
        "Argument of Periapsis(deg)": 0.001438752149889735,
        "Eccentricity": 0.0,
        "Inclination(deg)": 45.0,
        "Latitude(deg)": -33.270380708406584,
        "Longitude(deg)": 45.668386190200515,
        "Mean Anomaly(deg)": -129.4522726340025,
        "RAAN(deg)": 284.9986418600263,
        "Satellite Name": "Constellation 1 1268",
        "Satellite Number": 1268,
        "Semi-Major Axis(m)": 7083131.272910544,
        "Time(s)": 24
    },
    {
        "Altitude(m)": 713015.7215594266,
        "Argument of Periapsis(deg)": 0.0014987001561351404,
        "Eccentricity": 0.0,
        "Inclination(deg)": 45.0,
        "Latitude(deg)": -33.302948761098335,
        "Longitude(deg)": 45.725361866642494,
        "Mean Anomaly(deg)": -129.39157149375254,
        "RAAN(deg)": 284.99858527086076,
        "Satellite Name": "Constellation 1 1268",
        "Satellite Number": 1268,
        "Semi-Major Axis(m)": 7083131.272910544,
        "Time(s)": 25
    },
    {
        "Altitude(m)": 713028.7671940408,
        "Argument of Periapsis(deg)": 0.001558648162380546,
        "Eccentricity": 0.0,
        "Inclination(deg)": 45.0,
        "Latitude(deg)": -33.33548653852712,
        "Longitude(deg)": 45.782382793798206,
        "Mean Anomaly(deg)": -129.3308703535026,
        "RAAN(deg)": 284.9985286816952,
        "Satellite Name": "Constellation 1 1268",
        "Satellite Number": 1268,
        "Semi-Major Axis(m)": 7083131.272910544,
        "Time(s)": 26
    },
    {
        "Altitude(m)": 713041.804086286,
        "Argument of Periapsis(deg)": 0.0016185961686259519,
        "Eccentricity": 0.0,
        "Inclination(deg)": 45.0,
        "Latitude(deg)": -33.3679939818744,
        "Longitude(deg)": 45.839449019371386,
        "Mean Anomaly(deg)": -129.27016921325264,
        "RAAN(deg)": 284.9984720925296,
        "Satellite Name": "Constellation 1 1268",
        "Satellite Number": 1268,
        "Semi-Major Axis(m)": 7083131.272910544,
        "Time(s)": 27
    },
    {
        "Altitude(m)": 713054.8321896769,
        "Argument of Periapsis(deg)": 0.0016785441748713573,
        "Eccentricity": 0.0,
        "Inclination(deg)": 45.0,
        "Latitude(deg)": -33.40047103225202,
        "Longitude(deg)": 45.89656059092496,
        "Mean Anomaly(deg)": -129.20946807300288,
        "RAAN(deg)": 284.9984155033641,
        "Satellite Name": "Constellation 1 1268",
        "Satellite Number": 1268,
        "Semi-Major Axis(m)": 7083131.272910544,
        "Time(s)": 28
    },
    {
        "Altitude(m)": 713067.8514577455,
        "Argument of Periapsis(deg)": 0.001738492181116763,
        "Eccentricity": 0.0,
        "Inclination(deg)": 45.0,
        "Latitude(deg)": -33.432917630702654,
        "Longitude(deg)": 45.95371755588025,
        "Mean Anomaly(deg)": -129.14876693275295,
        "RAAN(deg)": 284.9983589141985,
        "Satellite Name": "Constellation 1 1268",
        "Satellite Number": 1268,
        "Semi-Major Axis(m)": 7083131.272910544,
        "Time(s)": 29
    },
    {
        "Altitude(m)": 713080.8618440551,
        "Argument of Periapsis(deg)": 0.0017984401873621684,
        "Eccentricity": 0.0,
        "Inclination(deg)": 45.0,
        "Latitude(deg)": -33.4653337181996,
        "Longitude(deg)": 46.01091979341842,
        "Mean Anomaly(deg)": -129.08806579250293,
        "RAAN(deg)": 284.99830232503285,
        "Satellite Name": "Constellation 1 1268",
        "Satellite Number": 1268,
        "Semi-Major Axis(m)": 7083131.272910544,
        "Time(s)": 30
    },
    {
        "Altitude(m)": 713093.8633021888,
        "Argument of Periapsis(deg)": 0.0018583881936075745,
        "Eccentricity": 0.0,
        "Inclination(deg)": 45.0,
        "Latitude(deg)": -33.497719235646024,
        "Longitude(deg)": 46.068167686867106,
        "Mean Anomaly(deg)": -129.0273646522532,
        "RAAN(deg)": 284.99824573586733,
        "Satellite Name": "Constellation 1 1268",
        "Satellite Number": 1268,
        "Semi-Major Axis(m)": 7083131.272910544,
        "Time(s)": 31
    },
    {
        "Altitude(m)": 713106.8557857561,
        "Argument of Periapsis(deg)": 0.0019183361998529795,
        "Eccentricity": 0.0,
        "Inclination(deg)": 45.0,
        "Latitude(deg)": -33.53007412387711,
        "Longitude(deg)": 46.12546111511917,
        "Mean Anomaly(deg)": -128.96666351200324,
        "RAAN(deg)": 284.99818914670175,
        "Satellite Name": "Constellation 1 1268",
        "Satellite Number": 1268,
        "Semi-Major Axis(m)": 7083131.272910544,
        "Time(s)": 32
    },
    {
        "Altitude(m)": 713119.8392483931,
        "Argument of Periapsis(deg)": 0.0019782842060983856,
        "Eccentricity": 0.0,
        "Inclination(deg)": 45.0,
        "Latitude(deg)": -33.56239832365831,
        "Longitude(deg)": 46.18280012501749,
        "Mean Anomaly(deg)": -128.90596237175328,
        "RAAN(deg)": 284.9981325575362,
        "Satellite Name": "Constellation 1 1268",
        "Satellite Number": 1268,
        "Semi-Major Axis(m)": 7083131.272910544,
        "Time(s)": 33
    },
    {
        "Altitude(m)": 713132.8136437617,
        "Argument of Periapsis(deg)": 0.0020382322123437906,
        "Eccentricity": 0.0,
        "Inclination(deg)": 45.0,
        "Latitude(deg)": -33.59469177568622,
        "Longitude(deg)": 46.24018476325825,
        "Mean Anomaly(deg)": -128.84526123150334,
        "RAAN(deg)": 284.99807596837064,
        "Satellite Name": "Constellation 1 1268",
        "Satellite Number": 1268,
        "Semi-Major Axis(m)": 7083131.272910544,
        "Time(s)": 34
    },
    {
        "Altitude(m)": 713145.7789255544,
        "Argument of Periapsis(deg)": 0.002098180218589197,
        "Eccentricity": 0.0,
        "Inclination(deg)": 45.0,
        "Latitude(deg)": -33.62695442058839,
        "Longitude(deg)": 46.29761507638911,
        "Mean Anomaly(deg)": -128.78456009125355,
        "RAAN(deg)": 284.998019379205,
        "Satellite Name": "Constellation 1 1268",
        "Satellite Number": 1268,
        "Semi-Major Axis(m)": 7083131.272910544,
        "Time(s)": 35
    },
    {
        "Altitude(m)": 713158.7350474803,
        "Argument of Periapsis(deg)": 0.002158128224834602,
        "Eccentricity": 0.0,
        "Inclination(deg)": 45.0,
        "Latitude(deg)": -33.65918619892383,
        "Longitude(deg)": 46.355091110809255,
        "Mean Anomaly(deg)": -128.7238589510036,
        "RAAN(deg)": 284.9979627900395,
        "Satellite Name": "Constellation 1 1268",
        "Satellite Number": 1268,
        "Semi-Major Axis(m)": 7083131.272910544,
        "Time(s)": 36
    },
    {
        "Altitude(m)": 713171.6819632836,
        "Argument of Periapsis(deg)": 0.002218076231080008,
        "Eccentricity": 0.0,
        "Inclination(deg)": 45.0,
        "Latitude(deg)": -33.69138705118288,
        "Longitude(deg)": 46.4126127446703,
        "Mean Anomaly(deg)": -128.6631578107536,
        "RAAN(deg)": 284.9979062008739,
        "Satellite Name": "Constellation 1 1268",
        "Satellite Number": 1268,
        "Semi-Major Axis(m)": 7083131.272910544,
        "Time(s)": 37
    }
]